#aV2015  2  9  0  0  0.00000000     288 DD+AD WGS84 FIT  NGA
## 1831  86400.00000000   300.00000000 57062 0.0000000000000
+   31     1  2  3  4  5  6  7  8  9 10 11 12 13 14 15 16 17
+         18 19 20 21 22 23 24 25 27 28 29 30 31 32  0  0  0
+          0  0  0  0  0  0  0  0  0  0  0  0  0  0  0  0  0
+          0  0  0  0  0  0  0  0  0  0  0  0  0  0  0  0  0
+          0  0  0  0  0  0  0  0  0  0  0  0  0  0  0  0  0
++         2  2  2  2  2  2  2  2  2  2  2  2  2  2  2  2  2
++         2  2  2  2  2  2  2  2  2  2  2  2  2  2  0  0  0
++         0  0  0  0  0  0  0  0  0  0  0  0  0  0  0  0  0
++         0  0  0  0  0  0  0  0  0  0  0  0  0  0  0  0  0
++         0  0  0  0  0  0  0  0  0  0  0  0  0  0  0  0  0
%c cc cc ccc ccc cccc cccc cccc cccc ccccc ccccc ccccc ccccc
%c cc cc ccc ccc cccc cccc cccc cccc ccccc ccccc ccccc ccccc
%f  0.0000000  0.000000000  0.00000000000  0.000000000000000
%f  0.0000000  0.000000000  0.00000000000  0.000000000000000
%i    0    0    0    0      0      0      0      0         0
%i    0    0    0    0      0      0      0      0         0
/*      NGA, ST. LOUIS,MO.                                  
/*   EPHEMERIS COMPUTED FROM  1 DAYS OF DATA                
/*   EPOCHA SMOOTHER                                       
/* CCCCCCCCCCCCCCCCCCCCCCCCCCCCCCCCCCCCCCCCCCCCCCCCCCCCCCCCC
*  2015  2  9  8 25  0.00000000
P  1  20696.135678   9968.179956  13429.391233     -9.216144                    
V  1   9435.253445  14373.020274 -24947.623350      0.004497                    
P  2 -12944.835333 -22361.335607   7485.885629    546.886687                    
V  2   8087.473408   4755.416528  29084.775764      0.023142                    
P  3  15573.075771   1138.315787  21496.091216    199.205742                    
V  3  -8644.613877  25878.965414   4849.307848      0.214465                    
P  4  19569.295197  17606.264305   4168.915322     -6.912784                    
V  4   1316.014181   6377.283764 -30520.025280     -0.006439                    
P  5  -5536.410984 -20124.218781 -16377.707100   -281.493359                    
V  5   8882.852211 -18944.853616  20518.779081      0.051398                    
P  6   -380.936567 -19592.529395  17929.298145     76.584374                    
V  6  16050.320053  16228.316972  18052.583514      0.114529                    
P  7  16426.986329  -2258.078875 -20731.616549    438.770686                    
V  7  16196.685474  20893.208194  10160.929530      0.031907                    
P  8   9895.729906  23934.355103   7413.959618     17.578472                    
V  8  -5815.819183  -6904.176839  30280.839647      0.002147                    
P  9  25141.377965  -7623.514245  -3948.751723    -81.445022                    
V  9   5450.536098   1867.178253  31157.634682     -0.116766                    
P 10   8591.338634 -24883.499517   -557.153448   -162.520212                    
V 10   3668.779767   1043.288218  31586.989029     -0.017328                    
P 11  24034.989354  10802.444206   3370.920282   -556.647174                    
V 11   1855.471691   6620.991740 -29679.732147     -0.025835                    
P 12 -13648.227097  -5063.917784  22132.152792    267.963330                    
V 12  10418.405305 -26228.254989    634.548497      0.029659                    
P 13 -11307.205967 -12984.829312 -20340.410751    -86.573572                    
V 13  25342.217619  -2855.862416 -12474.041081     -0.033688                    
P 14 -11886.785779  14477.345188  19003.801274     89.064465                    
V 14 -23685.438957   1249.214559 -16101.602411     -0.034731                    
P 15 -22723.260988  -4767.476442 -13264.196264   -231.238704                    
V 15  15613.831357  -6352.325855 -24304.172684     -0.022054                    
P 16   3589.408034  20016.173110 -16936.101006   -157.871510                    
V 16  -9705.496942  19212.247820  21084.083119      0.032957                    
P 17  13918.245571 -14237.088776  17759.524016   -154.880988                    
V 17  22032.070596  -1588.892898 -19061.627675     -0.021454                    
P 18 -15285.541805  17688.209003 -11838.606835    378.285816                    
V 18   1613.430448 -16290.158135 -25719.166211      0.027591                    
P 19  19228.066745   9420.870883 -16178.682726   -499.884328                    
V 19 -19811.758204   3229.927176 -21454.449588     -0.014083                    
P 20  13811.605841 -19874.616657  10703.685378    287.797989                    
V 20   -360.072392  14359.227162  26765.049981      0.041290                    
P 21 -13627.552532   7786.194243 -20778.444435   -414.725475                    
V 21 -18313.626745 -21248.144408   3531.397523     -0.040838                    
P 22  -9113.270788  24817.077012  -1022.347242    316.340413                    
V 22  -3449.583484  -2805.719792 -30967.403522      0.039280                    
P 23  26052.689700    -83.781402   6355.713729    -87.538009                    
V 23  -7216.853369   4027.550959  29844.839289     -0.025982                    
P 24 -21011.054269 -12268.098587  10792.392657    -43.175949                    
V 24  -7183.162268 -11941.915644 -27350.245498     -0.006382                    
P 25 -16470.170315   9469.048885  18412.844807     -2.470690                    
V 25   6520.223828 -22681.756770  17572.207615     -0.027122                    
P 27   8934.091322  13245.313182 -21241.339156     50.202227                    
V 27 -26334.033754   5606.973322  -7491.613425      0.026779                    
P 28  12905.322627 -22595.905854  -4422.325074    418.270761                    
V 28   -636.874909   6704.525065 -31765.682731      0.027317                    
P 29 -26224.910313   3983.574441   -740.882658    591.042622                    
V 29  -1299.253967  -2352.013847  32009.931732      0.022907                    
P 30   9404.527819 -12637.602162 -21385.798132    -85.201842                    
V 30  16497.017256  21579.788275  -5545.392687      0.011176                    
P 31   2254.916966  20630.994366  16514.124834    323.703901                    
V 31 -14356.570157 -15155.905929  21402.413918     -0.008321                    
P 32   8167.902189  16203.296323  19560.828152   -227.947799                    
V 32 -11116.501533  22124.358636 -13138.773424      0.090654                    
EOF
